*******************************************************************************
Ephemeris / WWW_USER Mon Mar 10 14:44:44 2025 Pasadena, USA      / Horizons    
*******************************************************************************
Target body name: (2018 RP1)                      {source: JPL#4}
Center body name: Earth (399)                     {source: DE441}
Center-site name: Gemini South Obs., Cerro Pachon
*******************************************************************************
Start time      : A.D. 2018-Sep-18 22:45:00.0000 UT      
Stop  time      : A.D. 2018-Sep-19 10:28:00.0000 UT      
Step-size       : 1 minutes
*******************************************************************************
Target pole/equ : undefined
Target radii    : undefined                                                    
Center geodetic : 289.2634, -30.2406227, 2.71233  {E-lon(deg),Lat(deg),Alt(km)}
Center cylindric: 289.2634,5517.21435,-3194.81213 {E-lon(deg),Dxy(km),Dz(km)}
Center pole/equ : ITRF93                          {East-longitude positive}
Center radii    : 6378.137, 6378.137, 6356.752 km {Equator_a, b, pole_c}       
Target primary  : Sun
Vis. interferer : MOON (R_eq= 1737.400) km        {source: DE441}
Rel. light bend : Sun                             {source: DE441}
Rel. lght bnd GM: 1.3271E+11 km^3/s^2                                          
Small-body perts: Yes                             {source: SB441-N16}
Atmos refraction: NO (AIRLESS)
RA format       : HMS
Time format     : CAL 
Calendar mode   : Mixed Julian/Gregorian
RTS-only print  : NO       
EOP file        : eop.250307.p250603                                           
EOP coverage    : DATA-BASED 1962-JAN-20 TO 2025-MAR-07. PREDICTS-> 2025-JUN-02
Units conversion: 1 au= 149597870.700 km, c= 299792.458 km/s, 1 day= 86400.0 s 
Table cut-offs 1: Elevation (-90.0deg=NO ),Airmass (>38.000=NO), Daylight (YES)
Table cut-offs 2: Solar elongation (  0.0,180.0=NO ),Local Hour Angle( 0.0=NO )
Table cut-offs 3: RA/DEC angular rate (     0.0=NO )                           
*******************************************************************************
Initial IAU76/J2000 heliocentric ecliptic osculating elements (au, days, deg.):
  EPOCH=  2458376.5 ! 2018-Sep-15.00 (TDB)         Residual RMS= .12525        
   EC= .3382936082205208   QR= .9576766169446216   TP= 2458412.3293739939      
   OM= 161.903422202901    W=  234.5704247756858   IN= 9.466091569921099       
  Equivalent ICRF heliocentric cartesian coordinates (au, au/d):
   X= 1.017940821946709E+00  Y=-7.278189102440286E-02  Z=-7.249995171787897E-02
  VX=-1.754817228708964E-03 VY= 1.862872143473751E-02 VZ= 4.887370356508847E-03
Asteroid physical parameters (km, seconds, rotational period in hours):        
   GM= n.a.                RAD= n.a.               ROTPER= n.a.                
   H= 24.3                 G= .150                 B-V= n.a.                   
                           ALBEDO= n.a.            STYP= n.a.                  
*******************************************************************************
 Date__(UT)__HR:MN     R.A._________(ICRF)_________DEC
******************************************************
$$SOE
 2018-Sep-18 22:45 Cm  05 37 22.781268 -18 15 18.23784
 2018-Sep-18 22:46 Cm  05 37 23.378613 -18 15 20.06129
 2018-Sep-18 22:47 Cm  05 37 23.975917 -18 15 21.88513
 2018-Sep-18 22:48 Cm  05 37 24.573179 -18 15 23.70937
 2018-Sep-18 22:49 Cm  05 37 25.170401 -18 15 25.53400
 2018-Sep-18 22:50 Cm  05 37 25.767580 -18 15 27.35903
 2018-Sep-18 22:51 Cm  05 37 26.364716 -18 15 29.18445
 2018-Sep-18 22:52 Cm  05 37 26.961810 -18 15 31.01027
 2018-Sep-18 22:53 Cm  05 37 27.558859 -18 15 32.83648
 2018-Sep-18 22:54 Cm  05 37 28.155863 -18 15 34.66308
 2018-Sep-18 22:55 Cm  05 37 28.752823 -18 15 36.49008
 2018-Sep-18 22:56 Cm  05 37 29.349737 -18 15 38.31747
 2018-Sep-18 22:57 Cm  05 37 29.946604 -18 15 40.14525
 2018-Sep-18 22:58 Cm  05 37 30.543425 -18 15 41.97343
 2018-Sep-18 22:59 Cm  05 37 31.140199 -18 15 43.80200
 2018-Sep-18 23:00 Cm  05 37 31.736924 -18 15 45.63096
 2018-Sep-18 23:01 Nm  05 37 32.333601 -18 15 47.46031
 2018-Sep-18 23:02 Nm  05 37 32.930228 -18 15 49.29005
 2018-Sep-18 23:03 Nm  05 37 33.526806 -18 15 51.12019
 2018-Sep-18 23:04 Nm  05 37 34.123334 -18 15 52.95072
 2018-Sep-18 23:05 Nm  05 37 34.719810 -18 15 54.78164
 2018-Sep-18 23:06 Nm  05 37 35.316236 -18 15 56.61294
 2018-Sep-18 23:07 Nm  05 37 35.912609 -18 15 58.44464
 2018-Sep-18 23:08 Nm  05 37 36.508929 -18 16 00.27673
 2018-Sep-18 23:09 Nm  05 37 37.105197 -18 16 02.10920
 2018-Sep-18 23:10 Nm  05 37 37.701410 -18 16 03.94207
 2018-Sep-18 23:11 Nm  05 37 38.297569 -18 16 05.77532
 2018-Sep-18 23:12 Nm  05 37 38.893673 -18 16 07.60896
 2018-Sep-18 23:13 Nm  05 37 39.489722 -18 16 09.44299
 2018-Sep-18 23:14 Nm  05 37 40.085715 -18 16 11.27741
 2018-Sep-18 23:15 Nm  05 37 40.681651 -18 16 13.11221
 2018-Sep-18 23:16 Nm  05 37 41.277529 -18 16 14.94740
 2018-Sep-18 23:17 Nm  05 37 41.873350 -18 16 16.78297
 2018-Sep-18 23:18 Nm  05 37 42.469113 -18 16 18.61893
 2018-Sep-18 23:19 Nm  05 37 43.064816 -18 16 20.45527
 2018-Sep-18 23:20 Nm  05 37 43.660460 -18 16 22.29200
 2018-Sep-18 23:21 Nm  05 37 44.256044 -18 16 24.12911
 2018-Sep-18 23:22 Nm  05 37 44.851568 -18 16 25.96661
 2018-Sep-18 23:23 Nm  05 37 45.447030 -18 16 27.80448
 2018-Sep-18 23:24 Nm  05 37 46.042430 -18 16 29.64274
 2018-Sep-18 23:25 Nm  05 37 46.637768 -18 16 31.48138
 2018-Sep-18 23:26 Nm  05 37 47.233043 -18 16 33.32040
 2018-Sep-18 23:27 Nm  05 37 47.828254 -18 16 35.15980
 2018-Sep-18 23:28 Nm  05 37 48.423401 -18 16 36.99958
 2018-Sep-18 23:29 Am  05 37 49.018484 -18 16 38.83974
 2018-Sep-18 23:30 Am  05 37 49.613502 -18 16 40.68028
 2018-Sep-18 23:31 Am  05 37 50.208453 -18 16 42.52119
 2018-Sep-18 23:32 Am  05 37 50.803339 -18 16 44.36248
 2018-Sep-18 23:33 Am  05 37 51.398157 -18 16 46.20415
 2018-Sep-18 23:34 Am  05 37 51.992908 -18 16 48.04619
 2018-Sep-18 23:35 Am  05 37 52.587591 -18 16 49.88861
 2018-Sep-18 23:36 Am  05 37 53.182206 -18 16 51.73141
 2018-Sep-18 23:37 Am  05 37 53.776751 -18 16 53.57457
 2018-Sep-18 23:38 Am  05 37 54.371227 -18 16 55.41811
 2018-Sep-18 23:39 Am  05 37 54.965632 -18 16 57.26202
 2018-Sep-18 23:40 Am  05 37 55.559967 -18 16 59.10631
 2018-Sep-18 23:41 Am  05 37 56.154230 -18 17 00.95096
 2018-Sep-18 23:42 Am  05 37 56.748422 -18 17 02.79598
 2018-Sep-18 23:43 Am  05 37 57.342540 -18 17 04.64138
 2018-Sep-18 23:44 Am  05 37 57.936586 -18 17 06.48714
 2018-Sep-18 23:45 Am  05 37 58.530558 -18 17 08.33326
 2018-Sep-18 23:46 Am  05 37 59.124456 -18 17 10.17976
 2018-Sep-18 23:47 Am  05 37 59.718280 -18 17 12.02662
 2018-Sep-18 23:48 Am  05 38 00.312028 -18 17 13.87385
 2018-Sep-18 23:49 Am  05 38 00.905700 -18 17 15.72144
 2018-Sep-18 23:50 Am  05 38 01.499296 -18 17 17.56939
 2018-Sep-18 23:51 Am  05 38 02.092815 -18 17 19.41771
 2018-Sep-18 23:52 Am  05 38 02.686257 -18 17 21.26639
 2018-Sep-18 23:53 Am  05 38 03.279621 -18 17 23.11543
 2018-Sep-18 23:54 Am  05 38 03.872906 -18 17 24.96482
 2018-Sep-18 23:55 Am  05 38 04.466112 -18 17 26.81458
 2018-Sep-18 23:56 Am  05 38 05.059239 -18 17 28.66470
 2018-Sep-18 23:57  m  05 38 05.652285 -18 17 30.51517
 2018-Sep-18 23:58  m  05 38 06.245251 -18 17 32.36600
 2018-Sep-18 23:59  m  05 38 06.838135 -18 17 34.21719
 2018-Sep-19 00:00  m  05 38 07.430938 -18 17 36.06873
 2018-Sep-19 00:01  m  05 38 08.023658 -18 17 37.92062
 2018-Sep-19 00:02  m  05 38 08.616295 -18 17 39.77287
 2018-Sep-19 00:03  m  05 38 09.208850 -18 17 41.62546
 2018-Sep-19 00:04  m  05 38 09.801320 -18 17 43.47841
 2018-Sep-19 00:05  m  05 38 10.393705 -18 17 45.33171
 2018-Sep-19 00:06  m  05 38 10.986006 -18 17 47.18536
 2018-Sep-19 00:07  m  05 38 11.578221 -18 17 49.03935
 2018-Sep-19 00:08  m  05 38 12.170350 -18 17 50.89369
 2018-Sep-19 00:09  m  05 38 12.762393 -18 17 52.74837
 2018-Sep-19 00:10  m  05 38 13.354348 -18 17 54.60340
 2018-Sep-19 00:11  m  05 38 13.946216 -18 17 56.45878
 2018-Sep-19 00:12  m  05 38 14.537996 -18 17 58.31449
 2018-Sep-19 00:13  m  05 38 15.129687 -18 18 00.17055
 2018-Sep-19 00:14  m  05 38 15.721288 -18 18 02.02694
 2018-Sep-19 00:15  m  05 38 16.312800 -18 18 03.88368
 2018-Sep-19 00:16  m  05 38 16.904222 -18 18 05.74075
 2018-Sep-19 00:17  m  05 38 17.495553 -18 18 07.59816
 2018-Sep-19 00:18  m  05 38 18.086793 -18 18 09.45591
 2018-Sep-19 00:19  m  05 38 18.677940 -18 18 11.31399
 2018-Sep-19 00:20  m  05 38 19.268996 -18 18 13.17240
 2018-Sep-19 00:21  m  05 38 19.859958 -18 18 15.03114
 2018-Sep-19 00:22  m  05 38 20.450828 -18 18 16.89022
 2018-Sep-19 00:23  m  05 38 21.041603 -18 18 18.74963
 2018-Sep-19 00:24  m  05 38 21.632284 -18 18 20.60936
 2018-Sep-19 00:25  m  05 38 22.222870 -18 18 22.46942
 2018-Sep-19 00:26  m  05 38 22.813360 -18 18 24.32981
 2018-Sep-19 00:27  m  05 38 23.403755 -18 18 26.19052
 2018-Sep-19 00:28  m  05 38 23.994053 -18 18 28.05156
 2018-Sep-19 00:29  m  05 38 24.584255 -18 18 29.91292
 2018-Sep-19 00:30  m  05 38 25.174358 -18 18 31.77460
 2018-Sep-19 00:31  m  05 38 25.764364 -18 18 33.63660
 2018-Sep-19 00:32  m  05 38 26.354272 -18 18 35.49891
 2018-Sep-19 00:33  m  05 38 26.944080 -18 18 37.36155
 2018-Sep-19 00:34  m  05 38 27.533789 -18 18 39.22450
 2018-Sep-19 00:35  m  05 38 28.123398 -18 18 41.08777
 2018-Sep-19 00:36  m  05 38 28.712907 -18 18 42.95134
 2018-Sep-19 00:37  m  05 38 29.302314 -18 18 44.81524
 2018-Sep-19 00:38  m  05 38 29.891621 -18 18 46.67944
 2018-Sep-19 00:39  m  05 38 30.480825 -18 18 48.54395
 2018-Sep-19 00:40  m  05 38 31.069927 -18 18 50.40877
 2018-Sep-19 00:41  m  05 38 31.658926 -18 18 52.27390
 2018-Sep-19 00:42  m  05 38 32.247821 -18 18 54.13933
 2018-Sep-19 00:43  m  05 38 32.836613 -18 18 56.00506
 2018-Sep-19 00:44  m  05 38 33.425300 -18 18 57.87110
 2018-Sep-19 00:45  m  05 38 34.013883 -18 18 59.73744
 2018-Sep-19 00:46  m  05 38 34.602360 -18 19 01.60408
 2018-Sep-19 00:47  m  05 38 35.190731 -18 19 03.47101
